STARLINK-36615          
1 67621U 26020E   26043.13817869  .00313315  00000+0  14306-2 0  9991
2 67621  42.9980 297.4414 0001807 275.0992  84.9674 15.82115066  2057
STARLINK-36614          
1 67622U 26020F   26043.58335648  .00038286  00000+0  23739-3 0  9993
2 67622  42.9988 294.7751 0002392 259.0958  93.9683 15.76330574  3354
STARLINK-36600          
1 67623U 26020G   26043.58335648  .00131084  00000+0  79842-3 0  9990
2 67623  42.9987 294.8065 0001735 253.5101  87.1089 15.76285007  3357
STARLINK-36439          
1 67624U 26020H   26043.13562428  .00333132  00000+0  15202-2 0  9997
2 67624  42.9981 297.4196 0001772 275.5273  84.5397 15.82075853  2053
STARLINK-36438          
1 67625U 26020J   26043.58335648  .00060752  00000+0  37419-3 0  9999
2 67625  42.9990 294.7436 0002198 219.0134 146.4789 15.76316230  3350
STARLINK-36436          
1 67626U 26020K   26043.13358132  .00338990  00000+0  15448-2 0  9993
2 67626  42.9978 297.4030 0001774 264.7712  95.2958 15.82090571  2054
STARLINK-36502          
1 67627U 26020L   26043.13431575  .00328387  00000+0  14998-2 0  9995
2 67627  42.9979 297.4087 0002327 273.8398  86.2207 15.82070090  2055
STARLINK-36532          
1 67628U 26020M   26043.58335648  .00005402  00000+0  28209-4 0  9991
2 67628  42.9983 294.6282 0002255 237.6997 174.1487 15.81986918  3355
STARLINK-36367          
1 67629U 26020N   26043.13284256  .00255939  00000+0  11803-2 0  9993
2 67629  42.9984 297.3969 0001912 266.0613  94.0040 15.82054273  2051
STARLINK-36416          
1 67630U 26020P   26043.58335648  .00119805  00000+0  73055-3 0  9995
2 67630  42.9991 294.7130 0002257 262.4717 115.4668 15.76296472  3350
STARLINK-36527          
1 67631U 26020Q   26043.58335648  .00080670  00000+0  38314-3 0  9992
2 67631  42.9987 294.6126 0001832 289.2974 128.7413 15.81955973  3359
STARLINK-36633          
1 67632U 26020R   26043.58335648  .00017406  00000+0  85142-4 0  9992
2 67632  42.9987 294.6023 0001886 282.1173 140.1119 15.81986322  3351
STARLINK-36637          
1 67633U 26020S   26043.58335648 -.00030816  00000+0 -18690-3 0  9998
2 67633  42.9991 294.6821 0002015 262.2670 128.1148 15.76368372  3350
STARLINK-36617          
1 67634U 26020T   26043.58335648 -.00037074  00000+0 -17426-3 0  9998
2 67634  42.9988 294.5838 0002058 249.5640 180.0105 15.82016375  3356
STARLINK-36627          
1 67635U 26020U   26043.58335648  .00068003  00000+0  41788-3 0  9991
2 67635  42.9993 294.5880 0002207 270.4231 157.2706 15.76330564  3350
STARLINK-36624          
1 67636U 26020V   26043.58335648 -.00021370  00000+0 -99259-4 0  9997
2 67636  42.9989 294.5573 0001992 282.8693 157.3471 15.82001575  3358
STARLINK-36610          
1 67637U 26020W   26043.58335648  .00089287  00000+0  54689-3 0  9994
2 67637  42.9990 294.6197 0001583 274.9468 140.3157 15.76309858  3353
STARLINK-36599          
1 67638U 26020X   26043.58335648  .00033494  00000+0  16124-3 0  9996
2 67638  42.9989 294.5242 0002325 264.0283 189.2130 15.81980121  3359
STARLINK-36595          
1 67639U 26020Y   26043.58335648 -.00017056  00000+0 -78706-4 0  9990
2 67639  42.9989 294.5126 0002181 262.0034 195.7484 15.81990581  3358
STARLINK-36570          
1 67640U 26020Z   26043.58335648 -.01050916  00000+0 -69186-2 0  9995
2 67640  42.9991 294.5258 0001983 263.2519 188.8832 15.77136194  3356
STARLINK-36514          
1 67641U 26020AA  26043.58335648 -.00010314  00000+0 -46543-4 0  9997
2 67641  42.9985 294.4792 0001657 270.8491 199.9702 15.82000161  3352
STARLINK-36556          
1 67642U 26020AB  26043.58335648  .00051843  00000+0  24781-3 0  9997
2 67642  42.9986 294.4702 0002038 248.0275 226.4088 15.81967330  3358
STARLINK-36533          
1 67643U 26020AC  26043.58335648  .00020908  00000+0  13118-3 0  9998
2 67643  42.9990 294.5561 0001903 260.3222 179.8105 15.76346518  3351
STARLINK-36623          
1 67644U 26020AD  26043.58335648 -.01598578  00000+0 -10605-1 0  9991
2 67644  42.9991 294.4639 0001736 265.7181 210.8664 15.77694650  3355
STARLINK-36619          
1 67645U 26020AE  26043.58335648 -.01891733  00000+0 -10637-1 0  9996
2 67645  42.9987 294.4571 0001749 253.8201 225.6204 15.81293301  3358
ALSAT-3B                
1 67646U 26021A   26043.55957533  .00007582  00000+0  31946-3 0  9994
2 67646  97.4720 118.0042 0011827 218.5650 141.4743 15.23563719  1896
CZ-2C R/B               
1 67647U 26021B   26043.56231547  .00013855  00000+0  41910-3 0  9998
2 67647  97.6561 118.5249 0153750  98.5187 263.3507 15.23397099  1875
STARLINK-36719          
1 67648U 26022A   26043.58335648 -.01695068  00000+0 -83111-2 0  9992
2 67648  97.2839  76.2857 0001185  87.0822 295.0231 15.85142789  2855
STARLINK-36342          
1 67649U 26022B   26043.58335648 -.01690722  00000+0 -82247-2 0  9994
2 67649  97.2839  76.2870 0001282  94.1348 291.6299 15.85295997  2857
STARLINK-36703          
1 67650U 26022C   26043.58335648 -.01696501  00000+0 -81721-2 0  9993
2 67650  97.2837  76.2890 0001415  91.4578 298.9413 15.85507633  2853
STARLINK-36696          
1 67651U 26022D   26043.58335648 -.01684921  00000+0 -80274-2 0  9999
2 67651  97.2836  76.2909 0001301  92.0988 303.1786 15.85713766  2858
STARLINK-36699          
1 67652U 26022E   26043.58335648 -.01682910  00000+0 -79458-2 0  9998
2 67652  97.2835  76.2927 0001295  92.6225 306.8190 15.85895243  2850
STARLINK-36694          
1 67653U 26022F   26043.58335648 -.01676451  00000+0 -78203-2 0  9999
2 67653  97.2835  76.2951 0001245  93.9640 310.8330 15.86131237  2856
STARLINK-36620          
1 67654U 26022G   26043.58335648 -.01676753  00000+0 -77424-2 0  9999
2 67654  97.2830  76.2966 0001306  89.9298 319.5273 15.86338922  2852
STARLINK-36720          
1 67655U 26022H   26043.58335648 -.01681967  00000+0 -76746-2 0  9999
2 67655  97.2832  76.2993 0001371  90.4860 324.3938 15.86590028  2858
STARLINK-36688          
1 67656U 26022J   26043.58335648 -.01677477  00000+0 -75877-2 0  9995
2 67656  97.2826  76.3002 0001378  85.6781 333.1664 15.86759027  2859
STARLINK-36706          
1 67657U 26022K   26043.58335648 -.01674456  00000+0 -74974-2 0  9997
2 67657  97.2823  76.3017 0001385  85.2228 338.1751 15.86959783  2823
STARLINK-36701          
1 67658U 26022L   26043.58335648 -.01665614  00000+0 -73717-2 0  9998
2 67658  97.2823  76.3047 0001376  90.4241 337.9970 15.87178804  2851
STARLINK-36642          
1 67659U 26022M   26043.58335648 -.01670019  00000+0 -73348-2 0  9994
2 67659  97.2824  76.3063 0001345  84.8737 347.1945 15.87341952  2855
STARLINK-36673          
1 67660U 26022N   26043.58335648 -.01661328  00000+0 -72129-2 0  9995
2 67660  97.2818  76.3076 0001394  85.9579 351.0829 15.87558541  2853
STARLINK-36674          
1 67661U 26022P   26043.58335648 -.01664537  00000+0 -71699-2 0  9992
2 67661  97.2819  76.3095 0001379  88.2023 352.5069 15.87723482  2859
STARLINK-36700          
1 67662U 26022Q   26043.58335648 -.01652472  00000+0 -69660-2 0  9993
2 67662  97.2813  76.3134 0001455  88.5449   1.5382 15.88133672  2854
STARLINK-36675          
1 67663U 26022R   26043.58335648 -.01658001  00000+0 -70638-2 0  9995
2 67663  97.2813  76.3112 0001452  86.1867 359.2567 15.87931299  2854
STARLINK-36404          
1 67664U 26022S   26043.58335648 -.01657135  00000+0 -69126-2 0  9993
2 67664  97.2804  76.3144 0001474  85.6818   9.1079 15.88351848  2827
STARLINK-36399          
1 67665U 26022T   26043.58335648 -.01646691  00000+0 -68151-2 0  9996
2 67665  97.2806  76.3164 0001450  89.3337   8.8960 15.88491215  2821
STARLINK-36365          
1 67666U 26022U   26043.58335648 -.01642514  00000+0 -67140-2 0  9994
2 67666  97.2805  76.3190 0001489  88.6065  14.8974 15.88730333  2854
STARLINK-36622          
1 67667U 26022V   26043.58335648 -.01648108  00000+0 -66518-2 0  9998
2 67667  97.2802  76.3210 0001491  91.1532  17.8802 15.88992513  2859
STARLINK-36625          
1 67668U 26022W   26043.58335648 -.01634308  00000+0 -64990-2 0  9998
2 67668  97.2796  76.3235 0001473  89.6706  25.3766 15.89262469  2858
STARLINK-36639          
1 67669U 26022X   26043.58335648 -.01848502  91753-3 -64193-2 0  9996
2 67669  97.2798  76.3264 0001520  89.0367  31.7451 15.89529810  2851
STARLINK-36596          
1 67670U 26022Y   26043.58335648 -.01832410  90454-3 -62970-2 0  9997
2 67670  97.2793  76.3278 0001543  92.3105  33.2308 15.89737685  2854
STARLINK-36297          
1 67671U 26022Z   26043.58335648 -.01823528  89951-3 -61564-2 0  9996
2 67671  97.2788  76.3314 0001538  87.7330  45.7401 15.90089918  2855
STARLINK-36616          
1 67672U 26022AA  26043.58335648 -.01829786  90384-3 -62275-2 0  9991
2 67672  97.2791  76.3300 0001499  85.2922  44.4748 15.89930241  2853
COSMOS 2600             
1 67674U 26023A   26043.55389457  .00083969  00000+0  41218-3 0  9997
2 67674  96.6492 119.9849 0002001  64.9086 295.2392 15.81985032  1077
2026-023B               
1 67675U 26023B   26043.61620885  .00014259  00000+0  61729-3 0  9993
2 67675  96.6409 119.4723 0017426 220.5677 139.4264 15.22362501  1044
2026-023C               
1 67676U 26023C   26043.61597712  .00013022  00000+0  56275-3 0  9993
2 67676  96.6445 119.4839 0018622 209.9002 150.1175 15.22423028  1206
2026-023D               
1 67677U 26023D   26043.61645593  .00012068  00000+0  52359-3 0  9993
2 67677  96.6476 119.4665 0018735 215.3129 144.6870 15.22302135  1030
2026-023E               
1 67678U 26023E   26043.61610735  .00013765  00000+0  59515-3 0  9990
2 67678  96.6369 119.4734 0018609 214.6072 145.3956 15.22394129  1035
2026-023F               
1 67679U 26023F   26043.61545206  .00012169  00000+0  52400-3 0  9994
2 67679  96.6375 121.9695 0020552 209.0303 150.9794 15.22522417  1026
2026-023G               
1 67680U 26023G   26042.76119911  .00004260  00000+0  18544-3 0  9995
2 67680  96.6308 121.2169 0021981 208.3069 151.6977 15.22461471   898
